[{"OBJECT_NAME":"STARLINK-35171","OBJECT_ID":"2025-207P","EPOCH":"2026-03-09T21:27:54.093312","MEAN_MOTION":15.05644602,"ECCENTRICITY":3.576e-5,"INCLINATION":97.6019,"RA_OF_ASC_NODE":138.8879,"ARG_OF_PERICENTER":102.0897,"MEAN_ANOMALY":258.037,"EPHEMERIS_TYPE":0,"CLASSIFICATION_TYPE":"U","NORAD_CAT_ID":65605,"ELEMENT_SET_NO":999,"REV_AT_EPOCH":2813,"BSTAR":6.560041e-5,"MEAN_MOTION_DOT":8.86e-6,"MEAN_MOTION_DDOT":0},{"OBJECT_NAME":"FENGYUN 1C DEB","OBJECT_ID":"1999-025BJR","EPOCH":"2026-03-09T02:36:25.741728","MEAN_MOTION":14.62811644,"ECCENTRICITY":0.02114789,"INCLINATION":99.2365,"RA_OF_ASC_NODE":306.6158,"ARG_OF_PERICENTER":322.0995,"MEAN_ANOMALY":36.5474,"EPHEMERIS_TYPE":0,"CLASSIFICATION_TYPE":"U","NORAD_CAT_ID":31187,"ELEMENT_SET_NO":999,"REV_AT_EPOCH":70361,"BSTAR":0.0035749119,"MEAN_MOTION_DOT":0.00025231,"MEAN_MOTION_DDOT":0}]
